STARLINK-5870
1 57222U 23094E   26061.15276487  .00153920  00000+0  10781-1 0  9998
2 57222  43.0004  71.5017 0002582 146.0595 214.0413 15.03841203146619
